77P/Longmore,e,24.3464,14.8037,196.7262,3.615924,0.1433425,0.35348674,20.1197,10/01.0/2016,2000,g  7.0,8.0
# From MPC 79654
78P/Gehrels,e,6.2494,210.5553,192.7112,3.738042,0.1363760,0.46111359,235.3453,10/01.0/2016,2000,g  5.5,8.0
# From MPC 94675
79P/du Toit-Hartley,e,3.1458,280.5608,281.7716,2.945339,0.1949850,0.61913872,221.1135,10/01.0/2016,2000,g 16.0,4.0
# From MPC 89313
80P/Peters-Hartley,e,29.9256,259.8583,339.1538,4.023354,0.1221298,0.59930629,84.3724,10/01.0/2016,2000,g  9.0,8.0
# From MPC 98565
81P/Wild,e,3.2390,136.1251,41.6929,3.448724,0.1538921,0.53833721,11.1879,10/01.0/2016,2000,g  7.0,6.0
# From MPC 75717
82P/Gehrels,e,1.1274,239.3140,227.1396,4.144439,0.1168168,0.12317101,285.8070,10/01.0/2016,2000,g  5.0,8.0
# From MPC 69911
84P/Giclas,e,7.2708,111.8795,276.3494,3.619881,0.1431076,0.50076798,166.4264,10/01.0/2016,2000,g  9.5,8.0
# From MPC 79347
86P/Wild,e,15.4717,72.3944,179.1760,3.605421,0.1439694,0.37223649,78.6785,10/01.0/2016,2000,g 11.0,6.0
# From MPC 87068
87P/Bus,e,2.6020,181.8807,24.7747,3.440892,0.1544179,0.38942188,156.8733,10/01.0/2016,2000,g  7.2,10.0
# From MPC 95735
88P/Howell,e,4.3833,56.6960,235.8802,3.108141,0.1798676,0.56316594,97.8050,10/01.0/2016,2000,g 11.0,6.0
# From MPC 10028
89P/Russell,e,12.0766,41.4453,250.1496,3.750931,0.1356736,0.40801466,349.8665,10/01.0/2016,2000,g 11.5,6.0
# From NK 2719
90P/Gehrels,e,9.6354,13.2518,29.2792,6.068853,0.0659241,0.50983139,342.7749,10/01.0/2016,2000,g  8.5,6.0
# From MPC 84320
91P/Russell,e,14.0840,247.8286,354.5462,3.896536,0.1281404,0.32991189,167.7774,10/01.0/2016,2000,g  7.5,6.0
# From MPC 88331
92P/Sanguin,e,19.4444,181.4583,163.7699,5.355364,0.0795281,0.65917972,46.1178,10/01.0/2016,2000,g 12.0,6.0
# From NK 2707
93P/Lovas,e,12.2048,339.6282,74.8989,4.389785,0.1071616,0.61270824,343.7699,10/01.0/2016,2000,g  9.5,6.0
# From MPC 84320
94P/Russell,e,6.1855,70.8829,92.7750,3.510674,0.1498368,0.36479836,356.0027,10/01.0/2016,2000,g  9.0,6.0
# From MPC 75717
95P/Chiron,e,6.9477,209.2124,339.5607,13.64070,0.0195636,0.38267832,147.1543,10/01.0/2016,2000,g  6.3,2.0
# From NK 2733
96P/Machholz,e,58.1591,94.2682,14.7901,3.034513,0.1864535,0.95917132,286.9163,10/01.0/2016,2000,g 13.0,4.8
# From MPC 77020
97P/Metcalf-Brewington,e,17.8629,185.1815,228.2493,4.799864,0.0937261,0.45694658,175.3954,10/01.0/2016,2000,g  5.5,6.0
# From MPC 83523
98P/Takamizawa,e,10.5480,114.7196,157.8051,3.804341,0.1328266,0.56107414,153.0756,10/01.0/2016,2000,g  9.0,8.0
# From MPC 75718
99P/Kowal,e,4.3392,28.1828,174.3638,6.128164,0.0649693,0.23081583,229.1111,10/01.0/2016,2000,g  4.5,6.0
# From MPC 84321
100P/Hartley,e,25.5894,37.7248,181.8707,3.427653,0.1553134,0.41340886,28.2605,10/01.0/2016,2000,g  9.0,8.0
# From MPC 75718
101P/Chernykh,e,5.0497,116.2430,277.6729,5.791753,0.0707113,0.59494013,275.2181,10/01.0/2016,2000,g 10.0,4.8
# From MPC 86232
102P/Shoemaker,e,26.0954,339.7353,20.6521,3.797354,0.1331933,0.46182075,150.5906,10/01.0/2016,2000,g  6.5,8.0
# From NK 2714
103P/Hartley,e,13.5937,219.7263,181.3057,3.477198,0.1520057,0.69345078,329.3704,10/01.0/2016,2000,g  8.5,8.0
# From MPC 10028
104P/Kowal,e,10.2567,235.4379,200.6783,3.262775,0.1672336,0.63858742,31.2439,10/01.0/2016,2000,g 16.0,4.0
# From MPC 94676
105P/Singer Brewster,e,9.1766,192.4322,46.5216,3.466149,0.1527331,0.40999317,256.3553,10/01.0/2016,2000,g 11.5,6.0
# From MPC 92276
106P/Schuster,e,20.2546,50.2151,355.9742,3.749293,0.1357626,0.59043053,109.0416,10/01.0/2016,2000,g 14.0,4.8
# From MPC 94676
107P/Wilson-Harrington,e,2.7779,267.6026,94.3937,2.633832,0.2305802,0.62984905,221.8094,10/01.0/2016,2000,g 16.0,2.0
# From MPC 89313
108P/Ciffreo,e,13.1799,53.2178,358.2684,3.737114,0.1364268,0.54618565,97.1791,10/01.0/2016,2000,g  8.0,12.0
# From ICA 105, 420
109P/Swift-Tuttle,e,113.1009,139.7511,153.0673,26.10834,0.0073881,0.96377004,64.2782,10/01.0/2016,2000,g  4.5,6.0
# From MPC 91618
110P/Hartley,e,11.6846,287.5869,167.5368,3.608604,0.1437789,0.31548143,94.0395,10/01.0/2016,2000,g  1.0,12.0
# From MPC 75718
111P/Helin-Roman-Crockett,e,4.2284,89.7680,1.8796,4.139287,0.1170350,0.10543930,158.1126,10/01.0/2016,2000,g  5.0,8.0
# From MPC 69910
112P/Urata-Niijima,e,24.2049,31.9100,21.3648,3.529832,0.1486186,0.58788628,177.6710,10/01.0/2016,2000,g 14.0,6.0
# From MPC 92984
113P/Spitaler,e,5.7785,14.3649,50.2142,3.691952,0.1389376,0.42634475,72.9678,10/01.0/2016,2000,g 13.5,4.0
# From MPC 82722
114P/Wiseman-Skiff,e,18.2779,271.0638,172.8697,3.544208,0.1477152,0.55460299,182.6887,10/01.0/2016,2000,g 11.5,6.0
# From MPC 76027
115P/Maury,e,11.6717,176.0465,121.0601,4.271706,0.1116354,0.51777467,203.7980,10/01.0/2016,2000,g 10.5,6.0
# From MPC 98565
116P/Wild,e,3.6086,20.9885,173.3157,3.483894,0.1515677,0.37220228,39.9348,10/01.0/2016,2000,g  2.5,10.0
# From MPC 95735
117P/Helin-Roman-Alu,e,8.6999,58.8739,222.5346,4.093918,0.1189859,0.25421531,109.3860,10/01.0/2016,2000,g  2.5,8.0
# From MPC 95735
118P/Shoemaker-Levy,e,8.5142,151.7268,302.3408,3.462470,0.1529766,0.42813173,16.2193,10/01.0/2016,2000,g 12.0,4.0
# From MPC 84628
119P/Parker-Hartley,e,5.2590,241.9773,182.3853,4.273234,0.1115755,0.30187078,101.6402,10/01.0/2016,2000,g  3.5,8.0
# From MPC 80901
120P/Mueller,e,8.8854,3.8701,28.8295,4.088415,0.1192262,0.35098901,156.6263,10/01.0/2016,2000,g 12.0,4.0
# From MPC 10028
121P/Shoemaker-Holt,e,20.1555,94.1462,11.5513,4.593488,0.1001129,0.18325099,112.7853,10/01.0/2016,2000,g  6.5,8.0
# From MPC 75718
122P/de Vico,e,85.0106,79.5592,13.0463,17.66367,0.0132765,0.96261165,101.6926,10/01.0/2016,2000,g  7.5,5.2
# From MPC 79345
123P/West-Hartley,e,15.3578,46.5065,102.9668,3.860235,0.1299521,0.44915868,248.6603,10/01.0/2016,2000,g  4.0,10.0
# From MPC 87068
124P/Mrkos,e,31.5322,0.4023,183.7867,3.318586,0.1630326,0.50398025,147.5673,10/01.0/2016,2000,g 13.5,2.8
# From MPC 94676
125P/Spacewatch,e,9.9883,153.1901,87.1543,3.124760,0.1784346,0.51313684,235.7911,10/01.0/2016,2000,g 13.0,6.0
# From MPC 66205
126P/IRAS,e,45.7821,357.8186,356.6031,5.641572,0.0735536,0.69513517,177.9929,10/01.0/2016,2000,g  6.0,8.0
# From MPC 84321
127P/Holt-Olmstead,e,14.3027,13.6494,6.6883,3.449460,0.1538429,0.36052622,30.3450,10/01.0/2016,2000,g 11.0,6.0
# From MPC 75719
128P-B/Shoemaker-Holt,e,4.3645,214.2920,210.5789,4.502273,0.1031707,0.32126209,349.4991,10/01.0/2016,2000,g  8.5,4.0
# From MPC 10028
129P/Shoemaker-Levy,e,3.4442,184.8973,308.8999,4.276420,0.1114509,0.08473560,107.8852,10/01.0/2016,2000,g 11.0,4.0
# From MPC 78188
130P/McNaught-Hughes,e,6.0572,70.3469,245.6393,3.389225,0.1579623,0.46152126,284.6210,10/01.0/2016,2000,g 10.0,6.0
# From MPC 76027
131P/Mueller,e,7.3543,214.1960,179.1266,3.679043,0.1396696,0.34281058,241.8934,10/01.0/2016,2000,g 11.0,4.0
# From MPC 92985
132P/Helin-Roman-Alu,e,6.1167,178.3630,219.3570,4.027150,0.1219572,0.55586381,103.4714,10/01.0/2016,2000,g 11.0,6.0
# From MPC 94676
133P/Elst-Pizarro,e,1.3880,160.1256,131.8187,3.162400,0.1752584,0.15987148,233.8255,10/01.0/2016,2000,g 15.4,2.0
# From MPC 89012
134P/Kowal-Vavrova,e,4.3497,202.0863,18.6704,6.242845,0.0631874,0.58804279,54.5415,10/01.0/2016,2000,g 11.5,4.0
# From MPC 92985
135P/Shoemaker-Levy,e,6.0624,213.0807,22.0288,3.804434,0.1328217,0.29563026,92.8498,10/01.0/2016,2000,g  7.0,8.0
# From MPC101100
136P/Mueller,e,9.4157,137.4511,225.1586,4.203194,0.1143760,0.29124246,14.0526,10/01.0/2016,2000,g 11.0,4.0
# From MPC 75719
137P/Shoemaker-Levy,e,4.8511,233.0730,140.9602,4.519099,0.1025950,0.57221491,277.5461,10/01.0/2016,2000,g 11.0,4.0
# From MPC 65938
138P/Shoemaker-Levy,e,10.0849,309.3634,95.5876,3.622635,0.1429444,0.52954698,225.0321,10/01.0/2016,2000,g 15.0,6.0
# From MPC 89012
139P/Vaisala-Oterma,e,2.3324,242.2244,166.1230,4.529938,0.1022270,0.24636967,315.3976,10/01.0/2016,2000,g  9.5,4.0
# From MPC 92985
140P/Bowell-Skiff,e,3.8211,343.3905,172.9288,6.446293,0.0602198,0.69162407,25.2587,10/01.0/2016,2000,g 11.5,6.0
# From MPC 94284
141P/Machholz,e,12.8348,245.7541,149.7716,3.025111,0.1873235,0.74861420,75.4434,10/01.0/2016,2000,g 12.0,12.0
# From MPC 71683
142P/Ge-Wang,e,12.3652,176.4721,174.9591,4.949020,0.0895211,0.50055112,208.4906,10/01.0/2016,2000,g  8.5,6.0
# From MPC 94676
143P/Kowal-Mrkos,e,4.6952,245.3089,320.8596,4.293565,0.1107840,0.41004409,295.3692,10/01.0/2016,2000,g 13.5,2.0
# From MPC101100
144P/Kushida,e,4.1150,245.4896,216.1506,3.856971,0.1301171,0.62887053,4.0235,10/01.0/2016,2000,g  8.5,8.0
# From MPC 75720
145P/Shoemaker-Levy,e,11.2598,26.8120,10.3878,4.145216,0.1167840,0.54070848,320.8828,10/01.0/2016,2000,g 13.5,4.0
# From MPC 10028
146P/Shoemaker-LINEAR,e,23.0729,53.4540,316.9757,4.039875,0.1213814,0.64600947,11.2733,10/01.0/2016,2000,g 15.0,4.0
# From MPC 75720
147P/Kushida-Muramatsu,e,2.3689,93.7300,347.0971,3.800198,0.1330438,0.27721578,28.7432,10/01.0/2016,2000,g 14.0,4.0
# From MPC 89730
148P/Anderson-LINEAR,e,3.6827,89.7354,6.6374,3.672257,0.1400569,0.53982813,66.5683,10/01.0/2016,2000,g 16.0,2.0
# From MPC 75720
149P/Mueller,e,29.7644,145.2552,43.6486,4.320167,0.1097623,0.38988772,264.6595,10/01.0/2016,2000,g  8.0,8.0
# From MPC 75720
150P/LONEOS,e,18.5060,272.4225,245.6780,3.884273,0.1287477,0.54697193,8.7638,10/01.0/2016,2000,g 13.5,4.0
# From MPC 95214
151P/Helin,e,4.7196,143.1527,216.2397,5.777910,0.0709656,0.57191405,25.4781,10/01.0/2016,2000,g 10.0,6.0
# From MPC 79346
152P/Helin-Lawrence,e,9.8724,91.8742,163.5289,4.489854,0.1035990,0.30802604,160.0428,10/01.0/2016,2000,g 11.5,4.0
# From MPC 46101
153P/Ikeya-Zhang,e,27.9975,93.3094,34.7859,51.26146,0.0026855,0.99009547,0.0000,03/22.5419/2002,2000,g  7.0,4.0
# From MPC 87068
154P/Brewington,e,17.7790,343.2726,47.8838,4.813289,0.0933343,0.67621316,95.5273,10/01.0/2016,2000,g  2.5,12.0
# From MPC 75720
155P/Shoemaker,e,6.3987,97.2448,14.7166,6.583786,0.0583432,0.72698107,293.4981,10/01.0/2016,2000,g 10.0,4.8
# From MPC 92985
156P/Russell-LINEAR,e,20.9557,38.5863,357.8678,3.585372,0.1451787,0.56246358,130.2129,10/01.0/2016,2000,g 15.5,2.0
# From MPC 95214
